NOAA 20 (JPSS-1)
1 43013U 17073A   26178.92671615  .00000046  00000+0  42888-4 0  9993
2 43013  98.7773 118.2939 0000671 134.3443 225.7789 14.19513600445994
